0 UNHA 3 DEB
1 39028U 12072C   13281.35274373  .00006874  00000-0  37142-3 0  2463
2 39028 097.4070 328.1274 0047452 218.4634 141.3212 15.14036637 45388
0 UNHA 3 DEB
1 39028U 12072C   13282.67455141  .00009264  00000-0  49864-3 0  2474
2 39028 097.4071 329.4133 0047493 213.6952 146.1259 15.14069985 45580
0 UNHA 3 DEB
1 39028U 12072C   13284.06242059  .00009612  00000-0  51684-3 0  2482
2 39028 097.4072 330.7634 0047608 208.7820 151.0784 15.14090063 45791
0 UNHA 3 DEB
1 39028U 12072C   13286.63984193  .00009172  00000-0  49268-3 0  2508
2 39028 097.4069 333.2713 0047922 199.9570 159.9789 15.14127216 46182
0 UNHA 3 DEB
1 39028U 12072C   13288.09374360  .00016097  00000-0  86029-3 0  2510
2 39028 097.4068 334.6862 0047996 194.9206 165.0613 15.14157676 46405
0 UNHA 3 DEB
1 39028U 12072C   13289.34935835  .00012566  00000-0  67208-3 0  2525
2 39028 097.4069 335.9084 0048020 190.5192 169.5041 15.14187286 46595
0 UNHA 3 DEB
1 39028U 12072C   13290.67103467  .00012405  00000-0  66294-3 0  2538
2 39028 097.4058 337.1938 0048093 185.8558 174.2118 15.14215060 46790
0 UNHA 3 DEB
1 39028U 12072C   13292.12484970  .00009614  00000-0  51432-3 0  2548
2 39028 097.4048 338.6083 0048216 180.8576 179.2581 15.14243070 47015
0 UNHA 3 DEB
1 39028U 12072C   13293.71080021  .00011396  00000-0  60829-3 0  2554
2 39028 097.4044 340.1519 0048359 175.5159 184.6516 15.14268576 47251
0 UNHA 3 DEB
1 39028U 12072C   13295.09848359  .00013202  00000-0  70343-3 0  2564
2 39028 097.4044 341.5019 0048409 170.7876 189.4256 15.14292585 47464
